{"type": "FeatureCollection", "features": [ {"type": "Feature", "properties": {"norad_id": 33651, "name": "FENGYUN 1C DEB", "group": "fengyun-1c-debris", "lat": 46.442359300193715, "lon": -148.52723550483822, "alt_km": 764.031818947904, "timestamp": "2025-12-02T10:50:47.561207+00:00", "meta": {"OBJECT_NAME": "FENGYUN 1C DEB", "OBJECT_ID": "1999-025DEL", "EPOCH": "2025-12-01T08:52:27.581952", "MEAN_MOTION": 14.20342984, "ECCENTRICITY": 0.01180914, "INCLINATION": 98.6582, "RA_OF_ASC_NODE": 21.1922, "ARG_OF_PERICENTER": 86.6093, "MEAN_ANOMALY": 274.8584, "EPHEMERIS_TYPE": 0, "CLASSIFICATION_TYPE": "U", "NORAD_CAT_ID": 33651, "ELEMENT_SET_NO": 999, "REV_AT_EPOCH": 64110, "BSTAR": 0.00018405699, "MEAN_MOTION_DOT": 3.8e-06, "MEAN_MOTION_DDOT": 0}, "tle": {"line1": "1 33651U 99025DEL 25335.36976368  .00000380  00000+0  18406-3 0  9991", "line2": "2 33651  98.6582  21.1922 0118091  86.6093 274.8584 14.20342984641104"}}, "geometry": {"type": "Point", "coordinates": [-148.52723550483822, 46.442359300193715]}}, {"type": "Feature", "properties": {"norad_id": 33655, "name": "FENGYUN 1C DEB", "group": "fengyun-1c-debris", "lat": -36.58381376949798, "lon": -146.19379463092534, "alt_km": 615.8659852614455, "timestamp": "2025-12-02T10:50:47.561217+00:00", "meta": {"OBJECT_NAME": "FENGYUN 1C DEB", "OBJECT_ID": "1999-025DEQ", "EPOCH": "2025-12-02T03:27:53.956800", "MEAN_MOTION": 14.97050444, "ECCENTRICITY": 0.0048335, "INCLINATION": 98.8058, "RA_OF_ASC_NODE": 40.0671, "ARG_OF_PERICENTER": 34.3164, "MEAN_ANOMALY": 326.1161, "EPHEMERIS_TYPE": 0, "CLASSIFICATION_TYPE": "U", "NORAD_CAT_ID": 33655, "ELEMENT_SET_NO": 999, "REV_AT_EPOCH": 96399, "BSTAR": 0.0021002, "MEAN_MOTION_DOT": 0.00024782, "MEAN_MOTION_DDOT": 0}, "tle": {"line1": "1 33655U 99025DEQ 25336.14437450  .00024782  00000+0  21002-2 0  9993", "line2": "2 33655  98.8058  40.0671 0048335  34.3164 326.1161 14.97050444963998"}}, "geometry": {"type": "Point", "coordinates": [-146.19379463092534, -36.58381376949798]}}, {"type": "Feature", "properties": {"norad_id": 33656, "name": "FENGYUN 1C DEB", "group": "fengyun-1c-debris", "lat": -37.649457482109476, "lon": 143.09736556269223, "alt_km": 882.8030325057734, "timestamp": "2025-12-02T10:50:47.561227+00:00", "meta": {"OBJECT_NAME": "FENGYUN 1C DEB", "OBJECT_ID": "1999-025DER", "EPOCH": "2025-12-01T05:08:12.514272", "MEAN_MOTION": 14.22694091, "ECCENTRICITY": 0.0090964, "INCLINATION": 98.5782, "RA_OF_ASC_NODE": 328.5792, "ARG_OF_PERICENTER": 64.5541, "MEAN_ANOMALY": 296.5016, "EPHEMERIS_TYPE": 0, "CLASSIFICATION_TYPE": "U", "NORAD_CAT_ID": 33656, "ELEMENT_SET_NO": 999, "REV_AT_EPOCH": 62545, "BSTAR": 0.00046353, "MEAN_MOTION_DOT": 1.041e-05, "MEAN_MOTION_DDOT": 0}, "tle": {"line1": "1 33656U 99025DER 25335.21403373  .00001041  00000+0  46353-3 0  9998", "line2": "2 33656  98.5782 328.5792 0090964  64.5541 296.5016 14.22694091625452"}}, "geometry": {"type": "Point", "coordinates": [143.09736556269223, -37.649457482109476]}}, {"type": "Feature", "properties": {"norad_id": 33658, "name": "FENGYUN 1C DEB", "group": "fengyun-1c-debris", "lat": 2.4118509850751844, "lon": 129.42595340498585, "alt_km": 1220.3234023777723, "timestamp": "2025-12-02T10:50:47.561237+00:00", "meta": {"OBJECT_NAME": "FENGYUN 1C DEB", "OBJECT_ID": "1999-025DET", "EPOCH": "2025-11-30T04:11:16.528704", "MEAN_MOTION": 13.62224572, "ECCENTRICITY": 0.02843217, "INCLINATION": 99.5637, "RA_OF_ASC_NODE": 127.5972, "ARG_OF_PERICENTER": 213.0329, "MEAN_ANOMALY": 145.277, "EPHEMERIS_TYPE": 0, "CLASSIFICATION_TYPE": "U", "NORAD_CAT_ID": 33658, "ELEMENT_SET_NO": 999, "REV_AT_EPOCH": 57968, "BSTAR": 0.0037447885, "MEAN_MOTION_DOT": 3.753e-05, "MEAN_MOTION_DDOT": 0}, "tle": {"line1": "1 33658U 99025DET 25334.17449686  .00003753  00000+0  37448-2 0  9997", "line2": "2 33658  99.5637 127.5972 0284321 213.0329 145.2770 13.62224572579684"}}, "geometry": {"type": "Point", "coordinates": [129.42595340498585, 2.4118509850751844]}}, {"type": "Feature", "properties": {"norad_id": 33660, "name": "FENGYUN 1C DEB", "group": "fengyun-1c-debris", "lat": -54.093444177431024, "lon": -99.53598892846682, "alt_km": 859.8027859068807, "timestamp": "2025-12-02T10:50:47.561247+00:00", "meta": {"OBJECT_NAME": "FENGYUN 1C DEB", "OBJECT_ID": "1999-025DEV", "EPOCH": "2025-11-30T06:21:45.566208", "MEAN_MOTION": 13.91742407, "ECCENTRICITY": 0.01101499, "INCLINATION": 98.6555, "RA_OF_ASC_NODE": 246.2786, "ARG_OF_PERICENTER": 280.7959, "MEAN_ANOMALY": 233.0286, "EPHEMERIS_TYPE": 0, "CLASSIFICATION_TYPE": "U", "NORAD_CAT_ID": 33660, "ELEMENT_SET_NO": 999, "REV_AT_EPOCH": 90890, "BSTAR": 0.00057509262, "MEAN_MOTION_DOT": 7.27e-06, "MEAN_MOTION_DDOT": 0}, "tle": {"line1": "1 33660U 99025DEV 25334.26511072  .00000727  00000+0  57509-3 0  9998", "line2": "2 33660  98.6555 246.2786 0110149 280.7959 233.0286 13.91742407908907"}}, "geometry": {"type": "Point", "coordinates": [-99.53598892846682, -54.093444177431024]}}, {"type": "Feature", "properties": {"norad_id": 33663, "name": "FENGYUN 1C DEB", "group": "fengyun-1c-debris", "lat": -36.035498564761134, "lon": -26.579527937109848, "alt_km": 685.8980400115333, "timestamp": "2025-12-02T10:50:47.561258+00:00", "meta": {"OBJECT_NAME": "FENGYUN 1C DEB", "OBJECT_ID": "1999-025DEY", "EPOCH": "2025-12-01T16:55:52.469760", "MEAN_MOTION": 14.60915891, "ECCENTRICITY": 0.0083899, "INCLINATION": 98.882, "RA_OF_ASC_NODE": 326.0878, "ARG_OF_PERICENTER": 46.1721, "MEAN_ANOMALY": 314.6373, "EPHEMERIS_TYPE": 0, "CLASSIFICATION_TYPE": "U", "NORAD_CAT_ID": 33663, "ELEMENT_SET_NO": 999, "REV_AT_EPOCH": 64041, "BSTAR": 0.0066801, "MEAN_MOTION_DOT": 0.00034481, "MEAN_MOTION_DDOT": 0}, "tle": {"line1": "1 33663U 99025DEY 25335.70546840  .00034481  00000+0  66801-2 0  9990", "line2": "2 33663  98.8820 326.0878 0083899  46.1721 314.6373 14.60915891640416"}}, "geometry": {"type": "Point", "coordinates": [-26.579527937109848, -36.035498564761134]}}, {"type": "Feature", "properties": {"norad_id": 33664, "name": "FENGYUN 1C DEB", "group": "fengyun-1c-debris", "lat": 1.5546325004886297, "lon": -54.135237687621405, "alt_km": 920.5936752463695, "timestamp": "2025-12-02T10:50:47.561267+00:00", "meta": {"OBJECT_NAME": "FENGYUN 1C DEB", "OBJECT_ID": "1999-025DEZ", "EPOCH": "2025-12-02T03:10:30.772704", "MEAN_MOTION": 14.03976749, "ECCENTRICITY": 0.0164063, "INCLINATION": 98.7018, "RA_OF_ASC_NODE": 125.3204, "ARG_OF_PERICENTER": 69.7897, "MEAN_ANOMALY": 292.0828, "EPHEMERIS_TYPE": 0, "CLASSIFICATION_TYPE": "U", "NORAD_CAT_ID": 33664, "ELEMENT_SET_NO": 999, "REV_AT_EPOCH": 90590, "BSTAR": 0.00053085, "MEAN_MOTION_DOT": 9.05e-06, "MEAN_MOTION_DDOT": 0}, "tle": {"line1": "1 33664U 99025DEZ 25336.13230061  .00000905  00000+0  53085-3 0  9999", "line2": "2 33664  98.7018 125.3204 0164063  69.7897 292.0828 14.03976749905904"}}, "geometry": {"type": "Point", "coordinates": [-54.135237687621405, 1.5546325004886297]}}, {"type": "Feature", "properties": {"norad_id": 33665, "name": "FENGYUN 1C DEB", "group": "fengyun-1c-debris", "lat": -55.7720751356509, "lon": 107.5134392936092, "alt_km": 1219.4549690184767, "timestamp": "2025-12-02T10:50:47.561281+00:00", "meta": {"OBJECT_NAME": "FENGYUN 1C DEB", "OBJECT_ID": "1999-025DFA", "EPOCH": "2025-11-30T14:39:07.562016", "MEAN_MOTION": 14.03506601, "ECCENTRICITY": 0.0456092, "INCLINATION": 99.0223, "RA_OF_ASC_NODE": 92.1738, "ARG_OF_PERICENTER": 126.0265, "MEAN_ANOMALY": 238.4072, "EPHEMERIS_TYPE": 0, "CLASSIFICATION_TYPE": "U", "NORAD_CAT_ID": 33665, "ELEMENT_SET_NO": 999, "REV_AT_EPOCH": 92421, "BSTAR": 0.0013543, "MEAN_MOTION_DOT": 5.359e-05, "MEAN_MOTION_DDOT": 0}, "tle": {"line1": "1 33665U 99025DFA 25334.61050419  .00005359  00000+0  13543-2 0  9990", "line2": "2 33665  99.0223  92.1738 0456092 126.0265 238.4072 14.03506601924218"}}, "geometry": {"type": "Point", "coordinates": [107.5134392936092, -55.7720751356509]}}, {"type": "Feature", "properties": {"norad_id": 33673, "name": "FENGYUN 1C DEB", "group": "fengyun-1c-debris", "lat": -14.412405827603607, "lon": -159.30932603993168, "alt_km": 871.6985466370779, "timestamp": "2025-12-02T10:50:47.561291+00:00", "meta": {"OBJECT_NAME": "FENGYUN 1C DEB", "OBJECT_ID": "1999-025DFJ", "EPOCH": "2025-11-28T02:47:54.399840", "MEAN_MOTION": 13.95506173, "ECCENTRICITY": 0.01071094, "INCLINATION": 99.3425, "RA_OF_ASC_NODE": 18.7226, "ARG_OF_PERICENTER": 264.0422, "MEAN_ANOMALY": 123.2143, "EPHEMERIS_TYPE": 0, "CLASSIFICATION_TYPE": "U", "NORAD_CAT_ID": 33673, "ELEMENT_SET_NO": 999, "REV_AT_EPOCH": 89698, "BSTAR": 0.0007283348, "MEAN_MOTION_DOT": 9.91e-06, "MEAN_MOTION_DDOT": 0}, "tle": {"line1": "1 33673U 99025DFJ 25332.11660185  .00000991  00000+0  72833-3 0  9994", "line2": "2 33673  99.3425  18.7226 0107109 264.0422 123.2143 13.95506173896986"}}, "geometry": {"type": "Point", "coordinates": [-159.30932603993168, -14.412405827603607]}}, {"type": "Feature", "properties": {"norad_id": 33674, "name": "FENGYUN 1C DEB", "group": "fengyun-1c-debris", "lat": 46.251678264940374, "lon": 18.25658958406008, "alt_km": 1086.779235652174, "timestamp": "2025-12-02T10:50:47.561301+00:00", "meta": {"OBJECT_NAME": "FENGYUN 1C DEB", "OBJECT_ID": "1999-025DFK", "EPOCH": "2025-12-02T01:53:41.578944", "MEAN_MOTION": 13.76813989, "ECCENTRICITY": 0.0210033, "INCLINATION": 98.6065, "RA_OF_ASC_NODE": 27.0218, "ARG_OF_PERICENTER": 268.727, "MEAN_ANOMALY": 88.9815, "EPHEMERIS_TYPE": 0, "CLASSIFICATION_TYPE": "U", "NORAD_CAT_ID": 33674, "ELEMENT_SET_NO": 999, "REV_AT_EPOCH": 88218, "BSTAR": 0.0021724, "MEAN_MOTION_DOT": 2.475e-05, "MEAN_MOTION_DDOT": 0}, "tle": {"line1": "1 33674U 99025DFK 25336.07895346  .00002475  00000+0  21724-2 0  9994", "line2": "2 33674  98.6065  27.0218 0210033 268.7270  88.9815 13.76813989882181"}}, "geometry": {"type": "Point", "coordinates": [18.25658958406008, 46.251678264940374]}}]}